NORAD_CAT_ID,OBJECT_NAME,OBJECT_TYPE,EPOCH,MEAN_MOTION,ECCENTRICITY,INCLINATION,RA_OF_ASC_NODE,ARG_OF_PERICENTER,MEAN_ANOMALY,BSTAR,MEAN_MOTION_DOT,MEAN_MOTION_DDOT,TLE_LINE0,TLE_LINE1,TLE_LINE2,SEMIMAJOR_AXIS,PERIOD,APOGEE,PERIGEE,DECAYED
51737.0,STARLINK-3509,PAYLOAD,2022-08-05 14:00:01,15.08813352,0.0001783,53.2155,89.3867,70.2434,349.1335,0.0027361,0.00043494,0.0,0 STARLINK-3509,1 51737U 22016Z   22217.58335648  .00043494  00000-0  27361-2 0  9995,2 51737  53.2155  89.3867 0001783  70.2434 349.1335 15.08813352  1304,6917.962,95.439,541.06,538.5930000000002,0.0
51737.0,STARLINK-3509,PAYLOAD,2022-08-05 22:00:00,15.08842269,0.0001927,53.2157,87.8921,65.0776,5.8195,-0.00081549,-0.00013244,0.0,0 STARLINK-3509,1 51737U 22016Z   22217.91667824 -.00013244  00000-0 -81549-3 0  9997,2 51737  53.2157  87.8921 0001927  65.0776   5.8195 15.08842269  1300,6917.873000000001,95.437,541.072,538.405,0.0
51737.0,STARLINK-3509,PAYLOAD,2022-08-06 00:00:02,15.08826304,0.0001937,53.216,87.5183,63.6253,100.2372,0.0014317,0.00022563,0.0,0 STARLINK-3509,1 51737U 22016Z   22218.00002315  .00022563  00000-0  14317-2 0  9996,2 51737  53.2160  87.5183 0001937  63.6253 100.2372 15.08826304 26605,6917.922,95.438,541.127,538.447,0.0
51737.0,STARLINK-3509,PAYLOAD,2022-08-06 14:00:01,15.08846205,0.0001814,53.2162,84.8976,70.06,24.0309,-0.00027981,-4.739e-05,0.0,0 STARLINK-3509,1 51737U 22016Z   22218.58334491 -.00004739  00000-0 -27981-3 0  9991,2 51737  53.2162  84.8976 0001814  70.0600  24.0309 15.08846205  1304,6917.861,95.437,540.981,538.472,0.0
51737.0,STARLINK-3509,PAYLOAD,2022-08-06 21:32:02,15.08847453,0.0001906999999999,53.218,83.4899,64.1151,296.0038,-5.2803e-06,-3.72e-06,0.0,0 STARLINK-3509,1 51737U 22016Z   22218.89725029 -.00000372  00000-0 -52803-5 0  9998,2 51737  53.2180  83.4899 0001907  64.1151 296.0038 15.08847453 25673,6917.858,95.437,541.0419999999998,538.403,0.0
51737.0,STARLINK-3509,PAYLOAD,2022-08-07 06:00:00,15.0884651,0.0001839,53.2166,81.9062,63.2296,54.0372,-0.0016293,-0.0002613,0.0,0 STARLINK-3509,1 51737U 22016Z   22219.25001157 -.00026130  00000-0 -16293-2 0  9998,2 51737  53.2166  81.9062 0001839  63.2296  54.0372 15.08846510 26796,6917.86,95.437,540.998,538.453,0.0
51737.0,STARLINK-3509,PAYLOAD,2022-08-07 14:00:01,15.08828003,0.000181,53.217,80.4086,70.4723,58.3881,0.0019643,0.00031102,0.0,0 STARLINK-3509,1 51737U 22016Z   22219.58334491  .00031102  00000-0  19643-2 0  9999,2 51737  53.2170  80.4086 0001810  70.4723  58.3881 15.08828003  1304,6917.917,95.438,541.034,538.53,0.0
51737.0,STARLINK-3509,PAYLOAD,2022-08-07 21:22:49,15.08839261,0.0001834,53.2175,79.0293,67.5647,292.5539,3.2336e-05,2.27e-06,0.0,0 STARLINK-3509,1 51737U 22016Z   22219.89085282  .00000227  00000-0  32336-4 0  9994,2 51737  53.2175  79.0293 0001834  67.5647 292.5539 15.08839261 25824,6917.8830000000025,95.438,541.016,538.479,0.0
51737.0,STARLINK-3509,PAYLOAD,2022-08-08 06:00:00,15.08878075,0.0001788,53.217,77.4171,64.0201,88.039,-0.0043405,-0.0006877999999999,0.0,0 STARLINK-3509,1 51737U 22016Z   22220.25001157 -.00068780  00000-0 -43405-2 0  9992,2 51737  53.2170  77.4171 0001788  64.0201  88.0390 15.08878075 26945,6917.764,95.435,540.866,538.3919999999998,0.0
51737.0,STARLINK-3509,PAYLOAD,2022-08-08 14:00:01,15.08834212,0.0001686999999999,53.2174,75.9197,70.4347,93.3032,0.0020387,0.00032302,0.0,0 STARLINK-3509,1 51737U 22016Z   22220.58335648  .00032302  00000-0  20387-2 0  9996,2 51737  53.2174  75.9197 0001687  70.4347  93.3032 15.08834212  1300,6917.898,95.438,540.93,538.596,0.0
51737.0,STARLINK-3509,PAYLOAD,2022-08-08 22:00:00,15.08859473,0.0001756,53.2173,74.4252,62.6444,112.6338,-0.0015625,-0.00025083,0.0,0 STARLINK-3509,1 51737U 22016Z   22220.91667824 -.00025083  00000-0 -15625-2 0  9996,2 51737  53.2173  74.4252 0001756  62.6444 112.6338 15.08859473  1303,6917.821,95.436,540.901,538.471,0.0
51737.0,STARLINK-3509,PAYLOAD,2022-08-09 06:00:00,15.08855313,0.0001588,53.2171,72.9279,62.9278,123.9559,-0.0027454,-0.00043734,0.0,0 STARLINK-3509,1 51737U 22016Z   22221.25001157 -.00043734  00000-0 -27454-2 0  9991,2 51737  53.2171  72.9279 0001588  62.9278 123.9559 15.08855313 27097,6917.834,95.437,540.797,538.6,0.0
51737.0,STARLINK-3509,PAYLOAD,2022-08-09 14:00:01,15.08819854,0.0001473,53.2173,71.4308,69.5675,128.9088,0.00044582,6.811e-05,0.0,0 STARLINK-3509,1 51737U 22016Z   22221.58334491  .00006811  00000-0  44582-3 0  9992,2 51737  53.2173  71.4308 0001473  69.5675 128.9088 15.08819854  1301,6917.941999999999,95.439,540.826,538.788,0.0
51737.0,STARLINK-3509,PAYLOAD,2022-08-09 22:00:00,15.08810284,0.0001569,53.2171,69.9362,60.3895,149.661,0.00090754,0.00014173,0.0,0 STARLINK-3509,1 51737U 22016Z   22221.91667824  .00014173  00000-0  90754-3 0  9990,2 51737  53.2171  69.9362 0001569  60.3895 149.6610 15.08810284 27194,6917.971,95.439,540.922,538.751,0.0
51737.0,STARLINK-3509,PAYLOAD,2022-08-10 14:00:01,15.08832246,0.0001443,53.2168,66.9419,71.0542,162.1394,0.0010154,0.00015906,0.0,0 STARLINK-3509,1 51737U 22016Z   22222.58334491  .00015906  00000-0  10154-2 0  9995,2 51737  53.2168  66.9419 0001443  71.0542 162.1394 15.08832246  1305,6917.904,95.438,540.7669999999998,538.771,0.0
51737.0,STARLINK-3509,PAYLOAD,2022-08-10 22:00:00,15.08825216,0.0001565999999999,53.2165,65.4472,61.9618,182.826,0.0012450999999999,0.00019575,0.0,0 STARLINK-3509,1 51737U 22016Z   22222.91667824  .00019575  00000-0  12451-2 0  9999,2 51737  53.2165  65.4472 0001566  61.9618 182.8260 15.08825216  1303,6917.926,95.438,540.874,538.707,0.0
51737.0,STARLINK-3509,PAYLOAD,2022-08-11 06:00:02,15.08854046,0.0001453999999999,53.2162,63.9495,64.9501,191.4833,-0.0017307,-0.00027737,0.0,0 STARLINK-3509,1 51737U 22016Z   22223.25002315 -.00027737  00000-0 -17307-2 0  9991,2 51737  53.2162  63.9495 0001454  64.9501 191.4833 15.08854046 27390,6917.837,95.437,540.7080000000002,538.697,0.0
51737.0,STARLINK-3509,PAYLOAD,2022-08-11 14:00:01,15.08862309,0.0001406999999999,53.2161,62.4526,72.0354,195.929,-0.0021742,-0.00034745,0.0,0 STARLINK-3509,1 51737U 22016Z   22223.58334491 -.00034745  00000-0 -21742-2 0  9995,2 51737  53.2161  62.4526 0001407  72.0354 195.9290 15.08862309  1302,6917.812,95.436,540.651,538.7040000000002,0.0
51737.0,STARLINK-3509,PAYLOAD,2022-08-12 00:00:00,15.0880016,0.0001434,53.2159,60.5837,58.8159,313.6586,0.0029064,0.0004622,0.0,0 STARLINK-3509,1 51737U 22016Z   22224.00001157  .00046220  00000-0  29064-2 0  9997,2 51737  53.2159  60.5837 0001434  58.8159 313.6586 15.08800160 27502,6918.002,95.44,540.859,538.875,0.0
51737.0,STARLINK-3509,PAYLOAD,2022-08-12 14:00:01,15.08844036,0.0001367,53.2159,57.963,69.683,233.0501,0.00049603,7.616e-05,0.0,0 STARLINK-3509,1 51737U 22016Z   22224.58334491  .00007616  00000-0  49603-3 0  9998,2 51737  53.2159  57.9630 0001367  69.6830 233.0501 15.08844036  1306,6917.868,95.437,540.679,538.7869999999998,0.0
51737.0,STARLINK-3509,PAYLOAD,2022-08-12 22:00:01,15.0882759,0.0001523,53.2159,56.4682,60.1677,254.2302,0.0018773,0.00029705,0.0,0 STARLINK-3509,1 51737U 22016Z   22224.91668981  .00029705  00000-0  18773-2 0  9995,2 51737  53.2159  56.4682 0001523  60.1677 254.2302 15.08827590 27641,6917.918000000002,95.438,540.837,538.73,0.0
51737.0,STARLINK-3509,PAYLOAD,2022-08-13 14:00:01,15.08836614,0.0001533,53.2161,53.4734,69.6839,267.8279,-5.9205e-05,-1.23e-05,0.0,0 STARLINK-3509,1 51737U 22016Z   22225.58334491 -.00001230  00000-0 -59205-4 0  9997,2 51737  53.2161  53.4734 0001533  69.6839 267.8279 15.08836614  1309,6917.891,95.438,540.816,538.695,0.0
51737.0,STARLINK-3509,PAYLOAD,2022-08-13 22:00:00,15.08814841,0.0001657,53.2163,51.9786,61.2079,287.8988,0.0024861,0.00039473,0.0,0 STARLINK-3509,1 51737U 22016Z   22225.91667824  .00039473  00000-0  24861-2 0  9999,2 51737  53.2163  51.9786 0001657  61.2079 287.8988 15.08814841  1309,6917.956999999999,95.439,540.969,538.6759999999998,0.0
51737.0,STARLINK-3509,PAYLOAD,2022-08-14 14:00:01,15.08860696,0.0001568,53.2168,48.984,67.8676,304.4149,-0.00033901,-5.682e-05,0.0,0 STARLINK-3509,1 51737U 22016Z   22226.58334491 -.00005682  00000-0 -33901-3 0  9997,2 51737  53.2168  48.9840 0001568  67.8676 304.4149 15.08860696  1301,6917.816999999999,95.436,540.7669999999998,538.597,0.0
51737.0,STARLINK-3509,PAYLOAD,2022-08-14 16:00:01,15.08867999,0.0001606,53.2168,48.6104,65.1781,40.0688,-0.0018634,-0.00029844,0.0,0 STARLINK-3509,1 51737U 22016Z   22226.66668981 -.00029844  00000-0 -18634-2 0  9991,2 51737  53.2168  48.6104 0001606  65.1781  40.0688 15.08867999 27911,6917.795,95.436,540.771,538.549,0.0
51737.0,STARLINK-3509,PAYLOAD,2022-08-14 22:00:00,15.08843398,0.000164,53.217,47.4892,59.112,324.7896,-0.00022153,-3.812e-05,0.0,0 STARLINK-3509,1 51737U 22016Z   22226.91667824 -.00003812  00000-0 -22153-3 0  9993,2 51737  53.2170  47.4892 0001640  59.1120 324.7896 15.08843398  1308,6917.87,95.437,540.87,538.6,0.0
51737.0,STARLINK-3509,PAYLOAD,2022-08-15 14:00:01,15.08853149,0.0001486999999999,53.2175,44.4949,65.3064,341.7765,-0.00084924,-0.00013783,0.0,0 STARLINK-3509,1 51737U 22016Z   22227.58334491 -.00013783  00000-0 -84924-3 0  9990,2 51737  53.2175  44.4949 0001487  65.3064 341.7765 15.08853149  1307,6917.84,95.437,540.734,538.677,0.0
51737.0,STARLINK-3509,PAYLOAD,2022-08-15 16:00:00,15.08857018,0.000152,53.2175,44.1212,62.6066,77.3773,-0.0018375999999999,-0.00029428,0.0,0 STARLINK-3509,1 51737U 22016Z   22227.66667824 -.00029428  00000-0 -18376-2 0  9998,2 51737  53.2175  44.1212 0001520  62.6066  77.3773 15.08857018 28069,6917.828,95.436,540.745,538.6419999999998,0.0
51737.0,STARLINK-3509,PAYLOAD,2022-08-15 22:00:00,15.08831524,0.0001543,53.2176,43.0,56.3919,2.3009,0.00012405,1.686e-05,0.0,0 STARLINK-3509,1 51737U 22016Z   22227.91667824  .00001686  00000-0  12405-3 0  9998,2 51737  53.2176  43.0000 0001543  56.3919   2.3009 15.08831524  1307,6917.906,95.438,540.839,538.7040000000002,0.0
